HODOYOSHI-3             
1 40015U 14033F   26094.95632170  .00002043  00000+0  24229-3 0  9995
2 40015  97.6342 260.9805 0031787 234.1924 125.6336 14.85221456636755
SPOT 7                  
1 40053U 14034A   26095.23912672  .00001013  00000+0  21634-3 0  9991
2 40053  98.0691 159.5921 0001602  90.8074 269.3310 14.60895892626488
SKYSAT-B                
1 40072U 14037D   26094.82454965  .00003016  00000+0  33658-3 0  9999
2 40072  98.3773  49.6500 0006252 144.5417 215.6214 14.87832954635058
WORLDVIEW-3 (WV-3)      
1 40115U 14048A   26095.25878463  .00001520  00000+0  18493-3 0  9998
2 40115  97.8595 171.0953 0001892 143.0709 217.0636 14.84900848631085
GAOFEN-2                
1 40118U 14049A   26095.26888995  .00001490  00000+0  20003-3 0  9990
2 40118  98.0170 159.5284 0008706 106.6903 253.5266 14.80816392628446
YAOGAN-21               
1 40143U 14053A   26095.30325625  .00015051  00000+0  59788-3 0  9994
2 40143  97.1556 138.6921 0008063   4.1912 355.9393 15.25382293643843
YAOGAN-22               
1 40275U 14063A   26095.17665210 -.00000039  00000+0  20107-4 0  9998
2 40275 100.7600 245.2680 0006152 359.8798   0.2311 13.15528523550219
ASNARO                  
1 40298U 14070A   26095.32811715  .00012646  00000+0  59078-3 0  9995
2 40298  97.3474 173.3932 0006904  82.8725 277.3295 15.19915181632948
YAOGAN-24               
1 40310U 14072A   26095.28260832  .00001934  00000+0  28724-3 0  9997
2 40310  98.1364 232.0535 0014889 133.5123 226.7326 14.76127390612961
CBERS 4                 
1 40336U 14079A   26095.26899436  .00000304  00000+0  12012-3 0  9991
2 40336  98.3424 154.4237 0000426 136.9254 223.1965 14.35575918593492
YAOGAN-26               
1 40362U 14088A   26095.24745358  .00035093  00000+0  75503-3 0  9998
2 40362  97.0665  97.3165 0003068 348.4202  11.6976 15.44555217626431
SMAP                    
1 40376U 15003A   26095.25974420  .00000750  00000+0  15429-3 0  9999
2 40376  98.1307 103.3782 0001926  94.1912 265.9510 14.63374603596957
KOMPSAT-3A              
1 40536U 15014A   26095.26665796  .00036028  00000+0  58505-3 0  9992
2 40536  97.6894  81.5051 0063564  83.5704 277.2780 15.50303862610502
SENTINEL-2A             
1 40697U 15028A   26095.27767721  .00000076  00000+0  45642-4 0  9990
2 40697  98.5644 171.1797 0001325  92.8673 267.2662 14.30817223563302
GAOFEN-8                
1 40701U 15030A   26095.27296707  .00013640  00000+0  30612-3 0  9991
2 40701  97.6932 284.4005 0010419  97.5734 262.6697 15.43459346600191
CARBONITE 1 (CBNT-1)    
1 40718U 15032D   26095.26806444  .00002135  00000+0  26617-3 0  9992
2 40718  97.6485 276.4066 0014714 168.2673 191.8887 14.83355532578531
YAOGAN-27               
1 40878U 15040A   26095.27660464 -.00000235  00000+0 -50838-3 0  9992
2 40878 100.1129  84.8350 0008627  27.0177 333.1384 13.16065551508076
