[{"OBJECT_NAME":"HODOYOSHI-3","OBJECT_ID":"2014-033F","EPOCH":"2026-04-04T22:57:06.194880","MEAN_MOTION":14.85221456,"ECCENTRICITY":0.00317874,"INCLINATION":97.6342,"RA_OF_ASC_NODE":260.9805,"ARG_OF_PERICENTER":234.1924,"MEAN_ANOMALY":125.6336,"EPHEMERIS_TYPE":0,"CLASSIFICATION_TYPE":"U","NORAD_CAT_ID":40015,"ELEMENT_SET_NO":999,"REV_AT_EPOCH":63675,"BSTAR":0.00024229488,"MEAN_MOTION_DOT":2.043e-5,"MEAN_MOTION_DDOT":0},{"OBJECT_NAME":"SPOT 7","OBJECT_ID":"2014-034A","EPOCH":"2026-04-05T05:44:20.548608","MEAN_MOTION":14.60895892,"ECCENTRICITY":0.00016021,"INCLINATION":98.0691,"RA_OF_ASC_NODE":159.5921,"ARG_OF_PERICENTER":90.8074,"MEAN_ANOMALY":269.331,"EPHEMERIS_TYPE":0,"CLASSIFICATION_TYPE":"U","NORAD_CAT_ID":40053,"ELEMENT_SET_NO":999,"REV_AT_EPOCH":62648,"BSTAR":0.00021634146,"MEAN_MOTION_DOT":1.013e-5,"MEAN_MOTION_DDOT":0},{"OBJECT_NAME":"SKYSAT-B","OBJECT_ID":"2014-037D","EPOCH":"2026-04-04T19:47:21.089760","MEAN_MOTION":14.87832954,"ECCENTRICITY":0.00062521,"INCLINATION":98.3773,"RA_OF_ASC_NODE":49.65,"ARG_OF_PERICENTER":144.5417,"MEAN_ANOMALY":215.6214,"EPHEMERIS_TYPE":0,"CLASSIFICATION_TYPE":"U","NORAD_CAT_ID":40072,"ELEMENT_SET_NO":999,"REV_AT_EPOCH":63505,"BSTAR":0.00033657653,"MEAN_MOTION_DOT":3.016e-5,"MEAN_MOTION_DDOT":0},{"OBJECT_NAME":"WORLDVIEW-3 (WV-3)","OBJECT_ID":"2014-048A","EPOCH":"2026-04-05T06:12:38.992032","MEAN_MOTION":14.84900848,"ECCENTRICITY":0.00018923,"INCLINATION":97.8595,"RA_OF_ASC_NODE":171.0953,"ARG_OF_PERICENTER":143.0709,"MEAN_ANOMALY":217.0636,"EPHEMERIS_TYPE":0,"CLASSIFICATION_TYPE":"U","NORAD_CAT_ID":40115,"ELEMENT_SET_NO":999,"REV_AT_EPOCH":63108,"BSTAR":0.00018492777,"MEAN_MOTION_DOT":1.52e-5,"MEAN_MOTION_DDOT":0},{"OBJECT_NAME":"GAOFEN-2","OBJECT_ID":"2014-049A","EPOCH":"2026-04-05T06:27:12.091680","MEAN_MOTION":14.80816392,"ECCENTRICITY":0.00087062,"INCLINATION":98.017,"RA_OF_ASC_NODE":159.5284,"ARG_OF_PERICENTER":106.6903,"MEAN_ANOMALY":253.5266,"EPHEMERIS_TYPE":0,"CLASSIFICATION_TYPE":"U","NORAD_CAT_ID":40118,"ELEMENT_SET_NO":999,"REV_AT_EPOCH":62844,"BSTAR":0.00020002913,"MEAN_MOTION_DOT":1.49e-5,"MEAN_MOTION_DDOT":0},{"OBJECT_NAME":"YAOGAN-21","OBJECT_ID":"2014-053A","EPOCH":"2026-04-05T07:16:41.340000","MEAN_MOTION":15.25382293,"ECCENTRICITY":0.00080634,"INCLINATION":97.1556,"RA_OF_ASC_NODE":138.6921,"ARG_OF_PERICENTER":4.1912,"MEAN_ANOMALY":355.9393,"EPHEMERIS_TYPE":0,"CLASSIFICATION_TYPE":"U","NORAD_CAT_ID":40143,"ELEMENT_SET_NO":999,"REV_AT_EPOCH":64384,"BSTAR":0.0005978766,"MEAN_MOTION_DOT":0.00015051,"MEAN_MOTION_DDOT":0},{"OBJECT_NAME":"YAOGAN-22","OBJECT_ID":"2014-063A","EPOCH":"2026-04-05T04:14:22.741440","MEAN_MOTION":13.15528523,"ECCENTRICITY":0.00061521,"INCLINATION":100.76,"RA_OF_ASC_NODE":245.268,"ARG_OF_PERICENTER":359.8798,"MEAN_ANOMALY":0.2311,"EPHEMERIS_TYPE":0,"CLASSIFICATION_TYPE":"U","NORAD_CAT_ID":40275,"ELEMENT_SET_NO":999,"REV_AT_EPOCH":55021,"BSTAR":2.0107014e-5,"MEAN_MOTION_DOT":-3.9e-7,"MEAN_MOTION_DDOT":0},{"OBJECT_NAME":"ASNARO","OBJECT_ID":"2014-070A","EPOCH":"2026-04-05T07:52:29.321760","MEAN_MOTION":15.19915181,"ECCENTRICITY":0.0006904,"INCLINATION":97.3474,"RA_OF_ASC_NODE":173.3932,"ARG_OF_PERICENTER":82.8725,"MEAN_ANOMALY":277.3295,"EPHEMERIS_TYPE":0,"CLASSIFICATION_TYPE":"U","NORAD_CAT_ID":40298,"ELEMENT_SET_NO":999,"REV_AT_EPOCH":63294,"BSTAR":0.00059078,"MEAN_MOTION_DOT":0.00012646,"MEAN_MOTION_DDOT":0},{"OBJECT_NAME":"YAOGAN-24","OBJECT_ID":"2014-072A","EPOCH":"2026-04-05T06:46:57.358848","MEAN_MOTION":14.7612739,"ECCENTRICITY":0.00148898,"INCLINATION":98.1364,"RA_OF_ASC_NODE":232.0535,"ARG_OF_PERICENTER":133.5123,"MEAN_ANOMALY":226.7326,"EPHEMERIS_TYPE":0,"CLASSIFICATION_TYPE":"U","NORAD_CAT_ID":40310,"ELEMENT_SET_NO":999,"REV_AT_EPOCH":61296,"BSTAR":0.00028723716,"MEAN_MOTION_DOT":1.934e-5,"MEAN_MOTION_DDOT":0},{"OBJECT_NAME":"CBERS 4","OBJECT_ID":"2014-079A","EPOCH":"2026-04-05T06:27:21.112704","MEAN_MOTION":14.35575918,"ECCENTRICITY":4.265e-5,"INCLINATION":98.3424,"RA_OF_ASC_NODE":154.4237,"ARG_OF_PERICENTER":136.9254,"MEAN_ANOMALY":223.1965,"EPHEMERIS_TYPE":0,"CLASSIFICATION_TYPE":"U","NORAD_CAT_ID":40336,"ELEMENT_SET_NO":999,"REV_AT_EPOCH":59349,"BSTAR":0.00012011968,"MEAN_MOTION_DOT":3.04e-6,"MEAN_MOTION_DDOT":0},{"OBJECT_NAME":"YAOGAN-26","OBJECT_ID":"2014-088A","EPOCH":"2026-04-05T05:56:19.989312","MEAN_MOTION":15.44555217,"ECCENTRICITY":0.0003068,"INCLINATION":97.0665,"RA_OF_ASC_NODE":97.3165,"ARG_OF_PERICENTER":348.4202,"MEAN_ANOMALY":11.6976,"EPHEMERIS_TYPE":0,"CLASSIFICATION_TYPE":"U","NORAD_CAT_ID":40362,"ELEMENT_SET_NO":999,"REV_AT_EPOCH":62643,"BSTAR":0.00075503145,"MEAN_MOTION_DOT":0.00035093,"MEAN_MOTION_DDOT":0},{"OBJECT_NAME":"SMAP","OBJECT_ID":"2015-003A","EPOCH":"2026-04-05T06:14:01.898880","MEAN_MOTION":14.63374603,"ECCENTRICITY":0.00019268,"INCLINATION":98.1307,"RA_OF_ASC_NODE":103.3782,"ARG_OF_PERICENTER":94.1912,"MEAN_ANOMALY":265.951,"EPHEMERIS_TYPE":0,"CLASSIFICATION_TYPE":"U","NORAD_CAT_ID":40376,"ELEMENT_SET_NO":999,"REV_AT_EPOCH":59695,"BSTAR":0.00015428795,"MEAN_MOTION_DOT":7.5e-6,"MEAN_MOTION_DDOT":0},{"OBJECT_NAME":"KOMPSAT-3A","OBJECT_ID":"2015-014A","EPOCH":"2026-04-05T06:23:59.247744","MEAN_MOTION":15.50303862,"ECCENTRICITY":0.00635642,"INCLINATION":97.6894,"RA_OF_ASC_NODE":81.5051,"ARG_OF_PERICENTER":83.5704,"MEAN_ANOMALY":277.278,"EPHEMERIS_TYPE":0,"CLASSIFICATION_TYPE":"U","NORAD_CAT_ID":40536,"ELEMENT_SET_NO":999,"REV_AT_EPOCH":61050,"BSTAR":0.00058505014,"MEAN_MOTION_DOT":0.00036028,"MEAN_MOTION_DDOT":0},{"OBJECT_NAME":"SENTINEL-2A","OBJECT_ID":"2015-028A","EPOCH":"2026-04-05T06:39:51.310944","MEAN_MOTION":14.30817223,"ECCENTRICITY":0.00013256,"INCLINATION":98.5644,"RA_OF_ASC_NODE":171.1797,"ARG_OF_PERICENTER":92.8673,"MEAN_ANOMALY":267.2662,"EPHEMERIS_TYPE":0,"CLASSIFICATION_TYPE":"U","NORAD_CAT_ID":40697,"ELEMENT_SET_NO":999,"REV_AT_EPOCH":56330,"BSTAR":4.5641888e-5,"MEAN_MOTION_DOT":7.6e-7,"MEAN_MOTION_DDOT":0},{"OBJECT_NAME":"GAOFEN-8","OBJECT_ID":"2015-030A","EPOCH":"2026-04-05T06:33:04.354848","MEAN_MOTION":15.43459346,"ECCENTRICITY":0.00104197,"INCLINATION":97.6932,"RA_OF_ASC_NODE":284.4005,"ARG_OF_PERICENTER":97.5734,"MEAN_ANOMALY":262.6697,"EPHEMERIS_TYPE":0,"CLASSIFICATION_TYPE":"U","NORAD_CAT_ID":40701,"ELEMENT_SET_NO":999,"REV_AT_EPOCH":60019,"BSTAR":0.00030612145,"MEAN_MOTION_DOT":0.0001364,"MEAN_MOTION_DDOT":0},{"OBJECT_NAME":"CARBONITE 1 (CBNT-1)","OBJECT_ID":"2015-032D","EPOCH":"2026-04-05T06:26:00.767616","MEAN_MOTION":14.83355532,"ECCENTRICITY":0.00147145,"INCLINATION":97.6485,"RA_OF_ASC_NODE":276.4066,"ARG_OF_PERICENTER":168.2673,"MEAN_ANOMALY":191.8887,"EPHEMERIS_TYPE":0,"CLASSIFICATION_TYPE":"U","NORAD_CAT_ID":40718,"ELEMENT_SET_NO":999,"REV_AT_EPOCH":57853,"BSTAR":0.00026617218,"MEAN_MOTION_DOT":2.135e-5,"MEAN_MOTION_DDOT":0},{"OBJECT_NAME":"YAOGAN-27","OBJECT_ID":"2015-040A","EPOCH":"2026-04-05T06:38:18.640896","MEAN_MOTION":13.16065551,"ECCENTRICITY":0.0008627,"INCLINATION":100.1129,"RA_OF_ASC_NODE":84.835,"ARG_OF_PERICENTER":27.0177,"MEAN_ANOMALY":333.1384,"EPHEMERIS_TYPE":0,"CLASSIFICATION_TYPE":"U","NORAD_CAT_ID":40878,"ELEMENT_SET_NO":999,"REV_AT_EPOCH":50807,"BSTAR":-0.00050838139,"MEAN_MOTION_DOT":-2.35e-6,"MEAN_MOTION_DDOT":0}]
